STARLINK-31313          
1 59088U 24041Q   26068.04005083 -.00003661  00000+0 -12358-3 0  9992
2 59088  43.0024 314.2433 0001874 256.6446 103.4196 15.27572063114174
LIME                    
1 62648U 25009AR  26068.73906781  .00013254  00000+0  47723-3 0  9995
2 62648  97.3985 151.4831 0001635  35.9029 324.2320 15.28703313 63766
